NORAD_CAT_ID,OBJECT_NAME,OBJECT_TYPE,EPOCH,MEAN_MOTION,ECCENTRICITY,INCLINATION,RA_OF_ASC_NODE,ARG_OF_PERICENTER,MEAN_ANOMALY,BSTAR,MEAN_MOTION_DOT,MEAN_MOTION_DDOT,TLE_LINE0,TLE_LINE1,TLE_LINE2,SEMIMAJOR_AXIS,PERIOD,APOGEE,PERIGEE,DECAYED
52693.0,STARLINK-3946,PAYLOAD,2024-01-09 11:01:08,15.08838785,0.0001582,53.2179,91.6044,100.3027,259.8144,3.9061e-05,3.34e-06,0.0,0 STARLINK-3946,1 52693U 22053AP  24009.45913142  .00000334  00000-0  39061-4 0  9994,2 52693  53.2179  91.6044 0001582 100.3027 259.8144 15.08838785 91452,6917.884,95.438,540.844,538.655,0.0
52693.0,STARLINK-3946,PAYLOAD,2024-01-09 12:36:31,15.08840436,0.0001584,53.2182,91.3066,100.9954,259.1216,5.4902e-05,5.86e-06,0.0,0 STARLINK-3946,1 52693U 22053AP  24009.52537024  .00000586  00000-0  54902-4 0  9993,2 52693  53.2182  91.3066 0001584 100.9954 259.1216 15.08840436 91868,6917.879,95.438,540.84,538.648,0.0
52693.0,STARLINK-3946,PAYLOAD,2024-01-10 10:51:56,15.08838248,0.0001204,53.2171,87.1433,93.7573,266.3557,-2.4708e-05,-6.81e-06,0.0,0 STARLINK-3946,1 52693U 22053AP  24010.45273460 -.00000681  00000-0 -24708-4 0  9997,2 52693  53.2171  87.1433 0001204  93.7573 266.3557 15.08838248 92005,6917.886,95.438,540.584,538.918,0.0
52693.0,STARLINK-3946,PAYLOAD,2024-01-10 12:27:19,15.08839193,0.0001443,53.2165,86.8465,71.7167,288.3982,-1.5897e-05,-5.41e-06,0.0,0 STARLINK-3946,1 52693U 22053AP  24010.51897505 -.00000541  00000-0 -15897-4 0  9990,2 52693  53.2165  86.8465 0001443  71.7167 288.3982 15.08839193 91611,6917.883,95.438,540.746,538.75,0.0
52693.0,STARLINK-3946,PAYLOAD,2024-01-11 12:18:05,15.08847977,0.000167,53.2181,82.3863,71.5861,288.5312,0.00012241,1.661e-05,0.0,0 STARLINK-3946,1 52693U 22053AP  24011.51256742  .00001661  00000-0  12241-3 0  9994,2 52693  53.2181  82.3863 0001670  71.5861 288.5312 15.08847977 91767,6917.856,95.437,540.876,538.566,0.0
52693.0,STARLINK-3946,PAYLOAD,2024-01-12 04:11:57,15.08835621,0.0001387,53.2178,79.4139,84.3335,275.7815,9.8152e-05,1.274e-05,0.0,0 STARLINK-3946,1 52693U 22053AP  24012.17497465  .00001274  00000-0  98152-4 0  9992,2 52693  53.2178  79.4139 0001387  84.3335 275.7815 15.08835621 91869,6917.894,95.438,540.718,538.799,0.0
52693.0,STARLINK-3946,PAYLOAD,2024-01-12 10:33:30,15.08836151,0.0001434,53.2179,78.2238,65.0419,295.0722,0.00011305,1.512e-05,0.0,0 STARLINK-3946,1 52693U 22053AP  24012.43993610  .00001512  00000-0  11305-3 0  9993,2 52693  53.2179  78.2238 0001434  65.0419 295.0722 15.08836151 92300,6917.892,95.438,540.749,538.765,0.0
52693.0,STARLINK-3946,PAYLOAD,2024-01-13 10:24:17,15.08841183,0.0001805,53.2173,73.7634,74.2706,285.8485,1.0998e-05,-1.13e-06,0.0,0 STARLINK-3946,1 52693U 22053AP  24013.43353769 -.00000113  00000-0  10998-4 0  9994,2 52693  53.2173  73.7634 0001805  74.2706 285.8485 15.08841183 92053,6917.877,95.437,540.99,538.493,0.0
52693.0,STARLINK-3946,PAYLOAD,2024-01-14 10:15:04,15.08843612,0.0001826,53.2185,69.303,99.858,260.2618,0.00013171,1.809e-05,0.0,0 STARLINK-3946,1 52693U 22053AP  24014.42713200  .00001809  00000-0  13171-3 0  9991,2 52693  53.2185  69.3030 0001826  99.8580 260.2618 15.08843612 92608,6917.869,95.437,540.998,538.471,0.0
52693.0,STARLINK-3946,PAYLOAD,2024-01-15 03:44:19,15.08841568,0.0001916,53.2191,66.0333,111.6996,248.42,5.5469e-05,5.95e-06,0.0,0 STARLINK-3946,1 52693U 22053AP  24015.15577581  .00000595  00000-0  55469-4 0  9990,2 52693  53.2191  66.0333 0001916 111.6996 248.4200 15.08841568 92310,6917.876,95.437,541.066,538.415,0.0
52693.0,STARLINK-3946,PAYLOAD,2024-01-15 10:05:51,15.08841178,0.0001799,53.219,64.8438,107.2889,252.8301,6.3975e-05,7.3e-06,0.0,0 STARLINK-3946,1 52693U 22053AP  24015.42073530  .00000730  00000-0  63975-4 0  9997,2 52693  53.2190  64.8438 0001799 107.2889 252.8301 15.08841178 92758,6917.877,95.437,540.986,538.497,0.0
52693.0,STARLINK-3946,PAYLOAD,2024-01-16 03:35:06,15.08841217,0.0002128,53.219,61.5692,103.9356,256.1873,-0.00016178,-2.862e-05,0.0,0 STARLINK-3946,1 52693U 22053AP  24016.14938460 -.00002862  00000-0 -16178-3 0  9991,2 52693  53.2190  61.5692 0002128 103.9356 256.1873 15.08841217 92466,6917.877,95.437,541.214,538.27,0.0
52693.0,STARLINK-3946,PAYLOAD,2024-01-16 08:21:16,15.08834548,0.0001854,53.2184,60.6769,101.7653,258.3547,-6.2725e-05,-1.286e-05,0.0,0 STARLINK-3946,1 52693U 22053AP  24016.34810556 -.00001286  00000-0 -62725-4 0  9997,2 52693  53.2184  60.6769 0001854 101.7653 258.3547 15.08834548 92893,6917.897,95.438,541.045,538.479,0.0
52693.0,STARLINK-3946,PAYLOAD,2024-01-17 09:47:26,15.0884352,0.0001967,53.2186,55.9191,103.5561,256.565,5.2588e-05,5.49e-06,0.0,0 STARLINK-3946,1 52693U 22053AP  24017.40793993  .00000549  00000-0  52588-4 0  9995,2 52693  53.2186  55.9191 0001967 103.5561 256.5650 15.08843520 92653,6917.87,95.437,541.095,538.374,0.0
52693.0,STARLINK-3946,PAYLOAD,2024-01-18 01:41:18,15.08828082,0.0001546,53.216,52.9461,53.6082,306.5053,0.00015327,2.151e-05,0.0,0 STARLINK-3946,1 52693U 22053AP  24018.07035006  .00002151  00000-0  15327-3 0  9993,2 52693  53.2160  52.9461 0001546  53.6082 306.5053 15.08828082 92758,6917.917,95.438,540.851,538.712,0.0
52693.0,STARLINK-3946,PAYLOAD,2024-01-18 11:13:36,15.08841838,0.0001579,53.2172,51.1608,103.0843,257.0326,0.00015764,2.222e-05,0.0,0 STARLINK-3946,1 52693U 22053AP  24018.46778108  .00002222  00000-0  15764-3 0  9997,2 52693  53.2172  51.1608 0001579 103.0843 257.0326 15.08841838 92810,6917.875,95.437,540.832,538.647,0.0
52693.0,STARLINK-3946,PAYLOAD,2024-01-19 01:32:05,15.08838901,0.0001819,53.2186,48.4835,116.9026,243.2152,-1.8888e-05,-5.89e-06,0.0,0 STARLINK-3946,1 52693U 22053AP  24019.06394983 -.00000589  00000-0 -18888-4 0  9996,2 52693  53.2186  48.4835 0001819 116.9026 243.2152 15.08838901 92900,6917.884,95.438,541.007,538.49,0.0
52693.0,STARLINK-3946,PAYLOAD,2024-01-19 11:04:23,15.0884795,0.0001671,53.2171,46.6978,79.0346,281.0835,9.1603e-05,1.17e-05,0.0,0 STARLINK-3946,1 52693U 22053AP  24019.46138271  .00001170  00000-0  91603-4 0  9997,2 52693  53.2171  46.6978 0001671  79.0346 281.0835 15.08847950 92960,6917.856,95.437,540.877,538.565,0.0
52693.0,STARLINK-3946,PAYLOAD,2024-01-19 22:12:05,15.0883957,0.000166,53.2169,44.6183,106.5622,253.5552,4.0112e-05,3.5e-06,0.0,0 STARLINK-3946,1 52693U 22053AP  24019.92506709  .00000350  00000-0  40112-4 0  9991,2 52693  53.2169  44.6183 0001660 106.5622 253.5552 15.08839570 93436,6917.882,95.438,540.895,538.598,0.0
52693.0,STARLINK-3946,PAYLOAD,2024-01-20 07:44:24,15.08844119,0.0001735,53.2169,42.8343,111.3272,248.7905,7.4545e-05,8.99e-06,0.0,0 STARLINK-3946,1 52693U 22053AP  24020.32250269  .00000899  00000-0  74545-4 0  9999,2 52693  53.2169  42.8343 0001735 111.3272 248.7905 15.08844119 93491,6917.868,95.437,540.933,538.533,0.0
52693.0,STARLINK-3946,PAYLOAD,2024-01-21 04:24:25,15.0883814,0.000149,53.218,38.9712,95.2796,264.8366,6.2061e-05,7e-06,0.0,0 STARLINK-3946,1 52693U 22053AP  24021.18362798  .00000700  00000-0  62061-4 0  9996,2 52693  53.2180  38.9712 0001490  95.2796 264.8366 15.08838140 93227,6917.886,95.438,540.782,538.72,0.0
52693.0,STARLINK-3946,PAYLOAD,2024-01-21 05:59:48,15.08838561,0.0001724,53.2175,38.674,101.0587,259.0599,9.3305e-05,1.197e-05,0.0,0 STARLINK-3946,1 52693U 22053AP  24021.24986741  .00001197  00000-0  93305-4 0  9999,2 52693  53.2175  38.6740 0001724 101.0587 259.0599 15.08838561 93639,6917.885,95.438,540.942,538.557,0.0
52693.0,STARLINK-3946,PAYLOAD,2024-01-21 07:35:11,15.08840207,0.0001595,53.2175,38.3757,96.633,263.4844,8.8955e-05,1.128e-05,0.0,0 STARLINK-3946,1 52693U 22053AP  24021.31610648  .00001128  00000-0  88955-4 0  9996,2 52693  53.2175  38.3757 0001595  96.6330 263.4844 15.08840207 93648,6917.88,95.438,540.848,538.641,0.0
52693.0,STARLINK-3946,PAYLOAD,2024-01-22 04:15:14,15.08775764,0.0002009,53.2173,34.5096,97.0043,263.1178,0.00083879,0.00013063,0.0,0 STARLINK-3946,1 52693U 22053AP  24022.17724650  .00013063  00000-0  83879-3 0  9990,2 52693  53.2173  34.5096 0002009  97.0043 263.1178 15.08775764 93379,6918.077,95.442,541.332,538.552,0.0
52693.0,STARLINK-3946,PAYLOAD,2024-01-22 05:50:36,15.0882062,0.00018,53.2189,34.2114,109.7173,250.4013,0.00025982,3.847e-05,0.0,0 STARLINK-3946,1 52693U 22053AP  24022.24347440  .00003847  00000-0  25982-3 0  9996,2 52693  53.2189  34.2114 0001800 109.7173 250.4013 15.08820620 93781,6917.94,95.439,541.05,538.559,0.0
52693.0,STARLINK-3946,PAYLOAD,2024-01-22 10:36:44,15.08845073,0.0001882,53.2184,33.316,111.2052,248.9141,-1.0736e-05,-4.59e-06,0.0,0 STARLINK-3946,1 52693U 22053AP  24022.44218551 -.00000459  00000-0 -10736-4 0  9998,2 52693  53.2184  33.3160 0001882 111.2052 248.9141 15.08845073 93414,6917.865,95.437,541.032,538.428,0.0
52693.0,STARLINK-3946,PAYLOAD,2024-01-23 04:05:59,15.08837951,0.0001804,53.2178,30.0445,111.9337,248.1847,6.7147e-06,-1.81e-06,0.0,0 STARLINK-3946,1 52693U 22053AP  24023.17083010 -.00000181  00000-0  67147-5 0  9999,2 52693  53.2178  30.0445 0001804 111.9337 248.1847 15.08837951 93527,6917.887,95.438,541.0,538.504,0.0
52693.0,STARLINK-3946,PAYLOAD,2024-01-23 05:41:22,15.08838809,0.0001824,53.218,29.7472,111.9676,248.151,2.2849e-05,7.6e-07,0.0,0 STARLINK-3946,1 52693U 22053AP  24023.23706965  .00000076  00000-0  22849-4 0  9998,2 52693  53.2180  29.7472 0001824 111.9676 248.1510 15.08838809 93938,6917.884,95.438,541.011,538.487,0.0
52693.0,STARLINK-3946,PAYLOAD,2024-01-24 05:32:09,15.0883951,0.0001772,53.2184,25.2868,108.7663,251.3521,5.322e-05,5.59e-06,0.0,0 STARLINK-3946,1 52693U 22053AP  24024.23067075  .00000559  00000-0  53220-4 0  9994,2 52693  53.2184  25.2868 0001772 108.7663 251.3521 15.08839510 93684,6917.882,95.438,540.973,538.521,0.0
52693.0,STARLINK-3946,PAYLOAD,2024-01-25 06:58:19,15.08845101,0.0001536,53.2181,20.5337,82.4586,277.6581,9.9415e-05,1.295e-05,0.0,0 STARLINK-3946,1 52693U 22053AP  24025.29050898  .00001295  00000-0  99415-4 0  9990,2 52693  53.2181  20.5337 0001536  82.4586 277.6581 15.08845101 93848,6917.865,95.437,540.792,538.667,0.0
